NORAD_CAT_ID,OBJECT_NAME,OBJECT_TYPE,EPOCH,MEAN_MOTION,ECCENTRICITY,INCLINATION,RA_OF_ASC_NODE,ARG_OF_PERICENTER,MEAN_ANOMALY,BSTAR,MEAN_MOTION_DOT,MEAN_MOTION_DDOT,TLE_LINE0,TLE_LINE1,TLE_LINE2,SEMIMAJOR_AXIS,PERIOD,APOGEE,PERIGEE,DECAYED
56807.0,STARLINK-6073,PAYLOAD,2024-04-27 12:14:37,14.98332006,0.0002656,70.0012,241.7771,272.968,87.1175,4.2271e-05,4.11e-06,0.0,0 STARLINK-6073,1 56807U 23078AS  24118.51016003  .00000411  00000-0  42271-4 0  9994,2 56807  70.0012 241.7771 0002656 272.9680  87.1175 14.98332006 51405,6950.187,96.107,573.898,570.206,0.0
56807.0,STARLINK-6073,PAYLOAD,2024-04-27 13:50:45,14.98332187,0.0002637,70.0012,241.6087,273.2214,86.8644,4.6035e-05,4.56e-06,0.0,0 STARLINK-6073,1 56807U 23078AS  24118.57691961  .00000456  00000-0  46035-4 0  9993,2 56807  70.0012 241.6087 0002637 273.2214  86.8644 14.98332187 51159,6950.186,96.107,573.884,570.218,0.0
56807.0,STARLINK-6073,PAYLOAD,2024-04-27 18:39:09,14.98337201,0.0002607,70.0015,241.1042,271.9729,88.1132,0.00010671,1.181e-05,0.0,0 STARLINK-6073,1 56807U 23078AS  24118.77719383  .00001181  00000-0  10671-3 0  9996,2 56807  70.0015 241.1042 0002607 271.9729  88.1132 14.98337201 51183,6950.171,96.107,573.848,570.224,0.0
56807.0,STARLINK-6073,PAYLOAD,2024-04-28 12:16:40,14.98314827,0.0002349,70.0027,239.256,251.8104,108.2799,-0.00015723,-1.968e-05,0.0,0 STARLINK-6073,1 56807U 23078AS  24119.51157639 -.00001968  00000-0 -15723-3 0  9997,2 56807  70.0027 239.2560 0002349 251.8104 108.2799 14.98314827 51559,6950.24,96.108,573.737,570.472,0.0
56807.0,STARLINK-6073,PAYLOAD,2024-04-28 13:52:48,14.98316675,0.0002681,70.0013,239.0851,265.2464,94.8388,-0.00023207,-2.86e-05,0.0,0 STARLINK-6073,1 56807U 23078AS  24119.57833754 -.00002860  00000-0 -23207-3 0  9990,2 56807  70.0013 239.0851 0002681 265.2464  94.8388 14.98316675 51302,6950.234,96.108,573.962,570.236,0.0
56807.0,STARLINK-6073,PAYLOAD,2024-04-28 17:05:04,14.98312762,0.0002524,70.0017,238.7493,259.9047,100.1828,-0.00020078,-2.487e-05,0.0,0 STARLINK-6073,1 56807U 23078AS  24119.71186047 -.00002487  00000-0 -20078-3 0  9990,2 56807  70.0017 238.7493 0002524 259.9047 100.1828 14.98312762 51322,6950.246,96.108,573.865,570.357,0.0
56807.0,STARLINK-6073,PAYLOAD,2024-04-29 01:05:44,14.9833045,0.0002814,70.0012,237.9071,265.405,94.6788,-0.00023743,-2.925e-05,0.0,0 STARLINK-6073,1 56807U 23078AS  24120.04565121 -.00002925  00000-0 -23743-3 0  9991,2 56807  70.0012 237.9071 0002814 265.4050  94.6788 14.98330450 51638,6950.191,96.107,574.012,570.101,0.0
56807.0,STARLINK-6073,PAYLOAD,2024-04-29 13:54:48,14.98335366,0.0003,70.0006,236.5597,267.229,92.8525,-1.2545e-05,-2.43e-06,0.0,0 STARLINK-6073,1 56807U 23078AS  24120.57972278 -.00000243  00000-0 -12545-4 0  9994,2 56807  70.0006 236.5597 0003000 267.2290  92.8525 14.98335366 51453,6950.176,96.107,574.126,569.956,0.0
56807.0,STARLINK-6073,PAYLOAD,2024-04-29 17:07:03,14.98337509,0.0003007,70.0006,236.223,267.4306,92.6509,9.3432e-06,1.9e-07,0.0,0 STARLINK-6073,1 56807U 23078AS  24120.71324056  .00000019  00000-0  93432-5 0  9999,2 56807  70.0006 236.2230 0003007 267.4306  92.6509 14.98337509 51733,6950.17,96.107,574.125,569.945,0.0
56807.0,STARLINK-6073,PAYLOAD,2024-04-30 10:44:33,14.98317979,0.0003124,70.0006,234.3714,271.2967,88.7834,0.00018816,2.152e-05,0.0,0 STARLINK-6073,1 56807U 23078AS  24121.44760871  .00002152  00000-0  18816-3 0  9990,2 56807  70.0006 234.3714 0003124 271.2967  88.7834 14.98317979 51843,6950.23,96.108,574.266,569.924,0.0
56807.0,STARLINK-6073,PAYLOAD,2024-04-30 13:56:49,14.98324437,0.0003095,70.0006,234.034,270.1416,89.9388,0.00017579,2.005e-05,0.0,0 STARLINK-6073,1 56807U 23078AS  24121.58112550  .00002005  00000-0  17579-3 0  9992,2 56807  70.0006 234.0340 0003095 270.1416  89.9388 14.98324437 51607,6950.21,96.107,574.226,569.924,0.0
56807.0,STARLINK-6073,PAYLOAD,2024-04-30 17:09:05,14.98324841,0.0003117,70.0006,233.6979,269.9372,90.1429,0.00020891,2.4e-05,0.0,0 STARLINK-6073,1 56807U 23078AS  24121.71464465  .00002400  00000-0  20891-3 0  9992,2 56807  70.0006 233.6979 0003117 269.9372  90.1429 14.98324841 51881,6950.209,96.107,574.24,569.907,0.0
56807.0,STARLINK-6073,PAYLOAD,2024-05-01 13:58:50,14.98328948,0.0003122,70.0009,231.5095,270.7895,89.2906,0.00012184,1.361e-05,0.0,0 STARLINK-6073,1 56807U 23078AS  24122.58252459  .00001361  00000-0  12184-3 0  9997,2 56807  70.0009 231.5095 0003122 270.7895  89.2906 14.98328948 51753,6950.196,96.107,574.231,569.891,0.0
56807.0,STARLINK-6073,PAYLOAD,2024-05-02 12:24:43,14.98328218,0.0003123,70.0008,229.1533,272.1116,87.9686,-4.1606e-05,-5.89e-06,0.0,0 STARLINK-6073,1 56807U 23078AS  24123.51716758 -.00000589  00000-0 -41606-4 0  9993,2 56807  70.0008 229.1533 0003123 272.1116  87.9686 14.98328218 52150,6950.198,96.107,574.234,569.893,0.0
56807.0,STARLINK-6073,PAYLOAD,2024-05-02 14:00:51,14.98329421,0.0003003,70.0009,228.9849,269.34,90.7415,-6.7176e-06,-1.73e-06,0.0,0 STARLINK-6073,1 56807U 23078AS  24123.58392577 -.00000173  00000-0 -67176-5 0  9999,2 56807  70.0009 228.9849 0003003 269.3400  90.7415 14.98329421 51900,6950.195,96.107,574.147,569.973,0.0
56807.0,STARLINK-6073,PAYLOAD,2024-05-02 23:37:38,14.98341301,0.0003096,70.0008,227.9748,271.5833,88.4971,-6.1592e-05,-8.28e-06,0.0,0 STARLINK-6073,1 56807U 23078AS  24123.98447834 -.00000828  00000-0 -61592-4 0  9992,2 56807  70.0008 227.9748 0003096 271.5833  88.4971 14.98341301 52221,6950.158,96.106,574.175,569.871,0.0
56807.0,STARLINK-6073,PAYLOAD,2024-05-03 14:02:50,14.9834347,0.0003126,70.0004,226.4594,273.2094,86.8707,7.8518e-05,8.44e-06,0.0,0 STARLINK-6073,1 56807U 23078AS  24124.58531018  .00000844  00000-0  78518-4 0  9999,2 56807  70.0004 226.4594 0003126 273.2094  86.8707 14.98343470 52051,6950.151,96.106,574.189,569.844,0.0
56807.0,STARLINK-6073,PAYLOAD,2024-05-03 17:15:06,14.98346311,0.0003091,70.0004,226.1229,273.0082,87.0723,0.00010727,1.188e-05,0.0,0 STARLINK-6073,1 56807U 23078AS  24124.71882630  .00001188  00000-0  10727-3 0  9992,2 56807  70.0004 226.1229 0003091 273.0082  87.0723 14.98346311 52338,6950.142,96.106,574.156,569.859,0.0
56807.0,STARLINK-6073,PAYLOAD,2024-05-03 23:39:39,14.983324,0.0002457,70.0016,225.448,277.8061,82.2819,3.7279e-05,3.52e-06,0.0,0 STARLINK-6073,1 56807U 23078AS  24124.98587658  .00000352  00000-0  37279-4 0  9997,2 56807  70.0016 225.4480 0002457 277.8061  82.2819 14.98332400 52377,6950.185,96.107,573.758,570.343,0.0
56807.0,STARLINK-6073,PAYLOAD,2024-05-04 12:28:45,14.98311704,0.0002904,70.0002,224.104,266.8149,93.2678,-2.3194e-05,-3.7e-06,0.0,0 STARLINK-6073,1 56807U 23078AS  24125.51997222 -.00000370  00000-0 -23194-4 0  9992,2 56807  70.0002 224.1040 0002904 266.8149  93.2678 14.98311704 52450,6950.249,96.108,574.133,570.096,0.0
56807.0,STARLINK-6073,PAYLOAD,2024-05-04 23:41:41,14.98329369,0.0003353,70.001,222.9258,267.8234,92.2542,-0.0001828,-2.273e-05,0.0,0 STARLINK-6073,1 56807U 23078AS  24125.98728613 -.00002273  00000-0 -18280-3 0  9992,2 56807  70.0010 222.9258 0003353 267.8234  92.2542 14.98329369 52524,6950.195,96.107,574.39,569.729,0.0
56807.0,STARLINK-6073,PAYLOAD,2024-05-05 14:06:53,14.98334459,0.0002636,70.0012,221.4124,256.0648,104.0218,-8.6833e-05,-1.129e-05,0.0,0 STARLINK-6073,1 56807U 23078AS  24126.58812225 -.00001129  00000-0 -86833-4 0  9991,2 56807  70.0012 221.4124 0002636 256.0648 104.0218 14.98334459 52353,6950.179,96.107,573.876,570.212,0.0
56807.0,STARLINK-6073,PAYLOAD,2024-05-05 15:43:01,14.98336583,0.0002963,70.0005,221.2429,266.052,94.03,-6.9577e-05,-9.23e-06,0.0,0 STARLINK-6073,1 56807U 23078AS  24126.65488013 -.00000923  00000-0 -69577-4 0  9990,2 56807  70.0005 221.2429 0002963 266.0520  94.0300 14.98336583 52624,6950.173,96.107,574.097,569.978,0.0
56807.0,STARLINK-6073,PAYLOAD,2024-05-06 14:08:54,14.98332655,0.0002955,70.0004,218.8863,269.0263,91.0557,0.00023058,2.659e-05,0.0,0 STARLINK-6073,1 56807U 23078AS  24127.58951433  .00002659  00000-0  23058-3 0  9993,2 56807  70.0004 218.8863 0002955 269.0263  91.0557 14.98332655 52509,6950.185,96.107,574.103,569.996,0.0
56807.0,STARLINK-6073,PAYLOAD,2024-05-06 15:45:01,14.9833447,0.0002942,70.0005,218.718,269.0102,91.072,0.00024549,2.838e-05,0.0,0 STARLINK-6073,1 56807U 23078AS  24127.65627266  .00002838  00000-0  24549-3 0  9990,2 56807  70.0005 218.7180 0002942 269.0102  91.0720 14.98334470 52777,6950.179,96.107,574.089,569.999,0.0
56807.0,STARLINK-6073,PAYLOAD,2024-05-07 04:34:06,14.98333083,0.0002784,70.0011,217.3728,268.1704,91.9136,3.1809e-05,2.87e-06,0.0,0 STARLINK-6073,1 56807U 23078AS  24128.19035870  .00000287  00000-0  31809-4 0  9998,2 56807  70.0011 217.3728 0002784 268.1704  91.9136 14.98333083 52857,6950.183,96.107,573.983,570.113,0.0
56807.0,STARLINK-6073,PAYLOAD,2024-05-07 14:10:55,14.98327875,0.0002765,70.0012,216.3637,267.9163,92.1679,-1.9274e-05,-3.23e-06,0.0,0 STARLINK-6073,1 56807U 23078AS  24128.59092369 -.00000323  00000-0 -19274-4 0  9993,2 56807  70.0012 216.3637 0002765 267.9163  92.1679 14.98327875 52656,6950.199,96.107,573.986,570.143,0.0
56807.0,STARLINK-6073,PAYLOAD,2024-05-07 15:47:03,14.98327892,0.0002759,70.0012,216.1954,267.8117,92.2726,-1.994e-05,-3.31e-06,0.0,0 STARLINK-6073,1 56807U 23078AS  24128.65768372 -.00000331  00000-0 -19940-4 0  9993,2 56807  70.0012 216.1954 0002759 267.8117  92.2726 14.98327892 52920,6950.199,96.107,573.982,570.147,0.0
56807.0,STARLINK-6073,PAYLOAD,2024-05-08 14:12:56,14.98332256,0.0002663,70.0011,213.8372,265.9729,94.1126,-6.6975e-05,-8.92e-06,0.0,0 STARLINK-6073,1 56807U 23078AS  24129.59232187 -.00000892  00000-0 -66975-4 0  9999,2 56807  70.0011 213.8372 0002663 265.9729  94.1126 14.98332256 52801,6950.186,96.107,573.902,570.2,0.0
56807.0,STARLINK-6073,PAYLOAD,2024-05-08 15:49:04,14.98336073,0.0002932,70.0006,213.6684,272.1484,87.934,-8.2338e-05,-1.075e-05,0.0,0 STARLINK-6073,1 56807U 23078AS  24129.65907963 -.00001075  00000-0 -82338-4 0  9992,2 56807  70.0006 213.6684 0002932 272.1484  87.9340 14.98336073 53075,6950.174,96.107,574.077,570.001,0.0
